{
  "links" : {
    "next" : "https://api.nasa.gov/neo/rest/v1/feed?start_date=2011-03-23&end_date=2011-03-23&detailed=true&api_key=t0TVs3DtDT2H8Oy2Zy8m2eVrNsAVKAexjcZXUckd",
    "prev" : "https://api.nasa.gov/neo/rest/v1/feed?start_date=2011-03-21&end_date=2011-03-21&detailed=true&api_key=t0TVs3DtDT2H8Oy2Zy8m2eVrNsAVKAexjcZXUckd",
    "self" : "https://api.nasa.gov/neo/rest/v1/feed?start_date=2011-03-22&end_date=2011-03-22&detailed=true&api_key=t0TVs3DtDT2H8Oy2Zy8m2eVrNsAVKAexjcZXUckd"
  },
  "element_count" : 6,
  "near_earth_objects" : {
    "2011-03-22" : [ {
      "links" : {
        "self" : "https://api.nasa.gov/neo/rest/v1/neo/3601574?api_key=t0TVs3DtDT2H8Oy2Zy8m2eVrNsAVKAexjcZXUckd"
      },
      "neo_reference_id" : "3601574",
      "name" : "(2012 FK15)",
      "nasa_jpl_url" : "http://ssd.jpl.nasa.gov/sbdb.cgi?sstr=3601574",
      "absolute_magnitude_h" : 26.5,
      "estimated_diameter" : {
        "kilometers" : {
          "estimated_diameter_min" : 0.0133215567,
          "estimated_diameter_max" : 0.0297879063
        },
        "meters" : {
          "estimated_diameter_min" : 13.3215566698,
          "estimated_diameter_max" : 29.7879062798
        },
        "miles" : {
          "estimated_diameter_min" : 0.008277629,
          "estimated_diameter_max" : 0.0185093411
        },
        "feet" : {
          "estimated_diameter_min" : 43.7058959846,
          "estimated_diameter_max" : 97.7293544391
        }
      },
      "is_potentially_hazardous_asteroid" : false,
      "close_approach_data" : [ {
        "close_approach_date" : "2011-03-22",
        "epoch_date_close_approach" : 1300777200000,
        "relative_velocity" : {
          "kilometers_per_second" : "12.3839732324",
          "kilometers_per_hour" : "44582.3036365417",
          "miles_per_hour" : "27701.7097234945"
        },
        "miss_distance" : {
          "astronomical" : "0.0962345241",
          "lunar" : "37.4352302551",
          "kilometers" : "14396480",
          "miles" : "8945558"
        },
        "orbiting_body" : "Earth"
      } ],
      "orbital_data" : {
        "orbit_id" : "4",
        "orbit_determination_date" : "2017-04-06 08:50:25",
        "orbit_uncertainty" : "8",
        "minimum_orbit_intersection" : ".0487075",
        "jupiter_tisserand_invariant" : "6.043",
        "epoch_osculation" : "2456009.5",
        "eccentricity" : ".06650745782869934",
        "semi_major_axis" : ".9911526984909586",
        "inclination" : "24.34128958115243",
        "ascending_node_longitude" : ".5942981672984921",
        "orbital_period" : "360.4203287229523",
        "perihelion_distance" : ".9252336521942696",
        "perihelion_argument" : "327.3579234806223",
        "aphelion_distance" : "1.057071744787647",
        "perihelion_time" : "2456150.985493658813",
        "mean_anomaly" : "218.6795092894852",
        "mean_motion" : ".9988337818667398",
        "equinox" : "J2000"
      }
    }, {
      "links" : {
        "self" : "https://api.nasa.gov/neo/rest/v1/neo/3666680?api_key=t0TVs3DtDT2H8Oy2Zy8m2eVrNsAVKAexjcZXUckd"
      },
      "neo_reference_id" : "3666680",
      "name" : "(2014 FN38)",
      "nasa_jpl_url" : "http://ssd.jpl.nasa.gov/sbdb.cgi?sstr=3666680",
      "absolute_magnitude_h" : 26.8,
      "estimated_diameter" : {
        "kilometers" : {
          "estimated_diameter_min" : 0.0116025908,
          "estimated_diameter_max" : 0.0259441818
        },
        "meters" : {
          "estimated_diameter_min" : 11.6025908209,
          "estimated_diameter_max" : 25.9441817907
        },
        "miles" : {
          "estimated_diameter_min" : 0.0072095135,
          "estimated_diameter_max" : 0.0161209622
        },
        "feet" : {
          "estimated_diameter_min" : 38.066244069,
          "estimated_diameter_max" : 85.1187093863
        }
      },
      "is_potentially_hazardous_asteroid" : false,
      "close_approach_data" : [ {
        "close_approach_date" : "2011-03-22",
        "epoch_date_close_approach" : 1300777200000,
        "relative_velocity" : {
          "kilometers_per_second" : "8.2279770029",
          "kilometers_per_hour" : "29620.7172105349",
          "miles_per_hour" : "18405.161757846"
        },
        "miss_distance" : {
          "astronomical" : "0.0254046437",
          "lunar" : "9.8824062347",
          "kilometers" : "3800480.5",
          "miles" : "2361509.25"
        },
        "orbiting_body" : "Earth"
      } ],
      "orbital_data" : {
        "orbit_id" : "7",
        "orbit_determination_date" : "2017-04-06 08:41:52",
        "orbit_uncertainty" : "7",
        "minimum_orbit_intersection" : ".0150687",
        "jupiter_tisserand_invariant" : "7.071",
        "epoch_osculation" : "2458000.5",
        "eccentricity" : ".3120033822064684",
        "semi_major_axis" : ".8233249952030521",
        "inclination" : "6.619093642228597",
        "ascending_node_longitude" : "9.450614653297057",
        "orbital_period" : "272.8697401464804",
        "perihelion_distance" : ".5664448120445754",
        "perihelion_argument" : "27.37543239760236",
        "aphelion_distance" : "1.080205178361529",
        "perihelion_time" : "2458011.488932591645",
        "mean_anomaly" : "345.5021823567954",
        "mean_motion" : "1.319310817706452",
        "equinox" : "J2000"
      }
    }, {
      "links" : {
        "self" : "https://api.nasa.gov/neo/rest/v1/neo/3684737?api_key=t0TVs3DtDT2H8Oy2Zy8m2eVrNsAVKAexjcZXUckd"
      },
      "neo_reference_id" : "3684737",
      "name" : "(2014 RA)",
      "nasa_jpl_url" : "http://ssd.jpl.nasa.gov/sbdb.cgi?sstr=3684737",
      "absolute_magnitude_h" : 28.9,
      "estimated_diameter" : {
        "kilometers" : {
          "estimated_diameter_min" : 0.004411182,
          "estimated_diameter_max" : 0.0098637028
        },
        "meters" : {
          "estimated_diameter_min" : 4.411182,
          "estimated_diameter_max" : 9.8637028131
        },
        "miles" : {
          "estimated_diameter_min" : 0.0027409806,
          "estimated_diameter_max" : 0.0061290189
        },
        "feet" : {
          "estimated_diameter_min" : 14.4723823528,
          "estimated_diameter_max" : 32.3612307372
        }
      },
      "is_potentially_hazardous_asteroid" : false,
      "close_approach_data" : [ {
        "close_approach_date" : "2011-03-22",
        "epoch_date_close_approach" : 1300777200000,
        "relative_velocity" : {
          "kilometers_per_second" : "13.837766545",
          "kilometers_per_hour" : "49815.9595618805",
          "miles_per_hour" : "30953.6999844362"
        },
        "miss_distance" : {
          "astronomical" : "0.0520037572",
          "lunar" : "20.2294616699",
          "kilometers" : "7779651.5",
          "miles" : "4834051"
        },
        "orbiting_body" : "Earth"
      } ],
      "orbital_data" : {
        "orbit_id" : "7",
        "orbit_determination_date" : "2017-04-06 08:38:48",
        "orbit_uncertainty" : "7",
        "minimum_orbit_intersection" : ".000222501",
        "jupiter_tisserand_invariant" : "4.502",
        "epoch_osculation" : "2458000.5",
        "eccentricity" : ".4563592816790139",
        "semi_major_axis" : "1.461298530436105",
        "inclination" : "3.130142009999979",
        "ascending_node_longitude" : "157.9901681507224",
        "orbital_period" : "645.2185549630932",
        "perihelion_distance" : ".7944213827676858",
        "perihelion_argument" : "108.9241739777087",
        "aphelion_distance" : "2.128175678104525",
        "perihelion_time" : "2458141.532084287283",
        "mean_anomaly" : "281.311081411281",
        "mean_motion" : ".5579504762081621",
        "equinox" : "J2000"
      }
    } ]
  }
}